OSCAR 7 (AO-7)          
1 07530U 74089B   26197.97960704 -.00000041  00000+0  32420-4 0  9990
2 07530 101.9906 211.5367 0012653  75.0766 311.4916 12.53698617364259
PHASE 3B (AO-10)        
1 14129U 83058B   26194.10401075 -.00000187  00000+0  00000+0 0  9996
2 14129  25.9345 215.2934 6002223 122.7887 309.2966  2.05872336296023
UOSAT 2 (UO-11)         
1 14781U 84021B   26197.88779573  .00000485  00000+0  54932-4 0  9998
2 14781  97.8077 163.1352 0009255  86.8071 273.4206 14.90851085261557
LUSAT (LO-19)           
1 20442U 90005G   26197.90335189  .00000028  00000+0  26657-4 0  9998
2 20442  98.8847 220.5268 0012585 116.7751 243.4722 14.34131019906659
EYESAT A (AO-27)        
1 22825U 93061C   26198.13696169  .00000035  00000+0  30281-4 0  9990
2 22825  98.6866 265.5374 0008651  20.4640 339.6888 14.30949370711286
ITAMSAT (IO-26)         
1 22826U 93061D   26198.17733620  .00000037  00000+0  30669-4 0  9991
2 22826  98.6813 265.4982 0008820   3.6742 356.4504 14.31377045711600
RADIO ROSTO (RS15)      
1 23439U 94085A   26198.18158145 -.00000037  00000+0  15493-3 0  9991
2 23439  64.8147 254.7080 0156991 358.3453   1.6933 11.27583535299283
JAS-2 (FO-29)           
1 24278U 96046B   26198.03210311 -.00000015  00000+0  20431-4 0  9995
2 24278  98.5219  42.8130 0350271  19.1820 342.2136 13.53275796477205
TECHSAT 1B (GO-32)      
1 25397U 98043D   26197.91760654  .00000005  00000+0  22495-4 0  9993
2 25397  99.0086 191.4285 0002237 112.2048 247.9368 14.24433546455562
ISS (ZARYA)             
1 25544U 98067A   26198.18571856  .00003640  00000+0  74136-4 0  9994
2 25544  51.6315 151.6351 0006784 305.3594  54.6760 15.49030061576408
PCSAT (NO-44)           
1 26931U 01043C   26197.91334750  .00000023  00000+0  39569-4 0  9996
2 26931  67.0496 167.3855 0005900 266.7372  93.3055 14.31965394294709
SAUDISAT 1C (SO-50)     
1 27607U 02058C   26198.16208639  .00000356  00000+0  60036-4 0  9990
2 27607  64.5519  36.2392 0074468 256.9149 102.3638 14.83100454268902
CUTE-1 (CO-55)          
1 27844U 03031E   26197.54116079  .00000131  00000+0  75515-4 0  9991
2 27844  98.6744 205.7314 0010852  99.2116 261.0291 14.24352049195854
CUBESAT XI-IV (CO-57)   
1 27848U 03031J   26197.96606914  .00000108  00000+0  66478-4 0  9995
2 27848  98.6775 205.8397 0010600 114.7088 245.5195 14.23635119195611
MOZHAETS 4 (RS22)       
1 27939U 03042A   26198.22532988  .00000472  00000+0  80913-4 0  9991
2 27939  98.3469  23.4339 0011389 166.9102 246.4424 14.73516017219971
CUBESAT XI-V            
1 28895U 05043F   26197.68672259  .00000630  00000+0  10690-3 0  9991
2 28895  98.3017 353.9342 0015305 110.8516 249.4332 14.72704407106096
CUTE-1.7+APD II (CO-65) 
1 32785U 08021C   26198.14310716  .00002273  00000+0  14519-3 0  9991
2 32785  97.8298 180.1938 0006888 291.6035  68.4459 15.09711162989719
SEEDS II (CO-66)        
1 32791U 08021J   26197.50387267  .00010519  00000+0  32533-3 0  9990
2 32791  97.7523 196.8243 0003211 153.5241 206.6165 15.33693982991787
YUBILEINY (RS30)        
1 32953U 08025A   26198.19726372  .00000028  00000+0  13042-3 0  9992
2 32953  82.5065 336.7709 0018656 244.3514 115.5639 12.43180780823427
KKS-1 (KISEKI)          
1 33499U 09002H   26198.07593606  .00000579  00000+0  77746-4 0  9996
2 33499  98.1173 120.9918 0007593 182.5438 177.5738 14.83191704940621
SWISSCUBE               
1 35932U 09051B   26197.72444137  .00000456  00000+0  99539-4 0  9997
2 35932  98.4005 106.1245 0007905 114.9711 245.2311 14.62532363893478
BEESAT-1                
1 35933U 09051C   26197.68087812  .00000383  00000+0  86615-4 0  9996
2 35933  98.3932 105.6536 0006186 125.9975 234.1800 14.61763234893492
ITUPSAT1                
1 35935U 09051E   26198.17721014  .00000337  00000+0  79459-4 0  9999
2 35935  98.4015 105.3171 0008205 137.6090 222.5745 14.60480346893118
XIWANG-1 (HOPE-1)       
1 36122U 09072B   26198.18753253 -.00000345  00000+0 -78825-3 0  9998
2 36122 100.4041 151.5430 0007575 160.4065 199.7340 13.16438828796954
O/OREOS (USA 219)       
1 37224U 10062C   26197.86249662  .00000992  00000+0  99231-4 0  9992
2 37224  71.9698  13.1111 0014076   1.8269 358.2950 14.93855170121078
JUGNU                   
1 37839U 11058B   26198.16629453  .00000335  00000+0  35858-4 0  9990
2 37839  19.9596 126.2869 0018611  48.1963  89.0801 14.13783712763271
SRMSAT                  
1 37841U 11058D   26198.19137080  .00000329  00000+0  34785-4 0  9997
2 37841  19.9707 237.8634 0011708 173.0864 239.6665 14.11581345762068
STRAND-1                
1 39090U 13009E   26197.43623744  .00000110  00000+0  51462-4 0  9995
2 39090  98.3935  16.9527 0009469 137.7246 222.4672 14.37179260701269
ZACUBE-1 (TSHEPISOSAT)  
1 39417U 13066B   26197.93417494  .00001271  00000+0  10162-3 0  9999
2 39417  97.8006 160.4171 0044090 149.6523 210.7268 15.01333422685192
GOMX-1                  
1 39430U 13066Q   26198.00961590  .00000624  00000+0  10069-3 0  9991
2 39430  97.6462  36.5902 0128086 342.3661  17.3119 14.69545196674290
